{"type": "FeatureCollection", "features": [ {"type": "Feature", "properties": {"norad_id": 33779, "name": "COSMOS 2251 DEB", "group": "cosmos-2251-debris", "lat": 41.101989668495236, "lon": 161.8064940997696, "alt_km": 663.2150458674432, "timestamp": "2025-12-24T18:55:56.464269+00:00", "meta": {"OBJECT_NAME": "COSMOS 2251 DEB", "OBJECT_ID": "1993-036U", "EPOCH": "2025-12-24T04:49:51.841344", "MEAN_MOTION": 14.70741805, "ECCENTRICITY": 0.00159889, "INCLINATION": 74.0453, "RA_OF_ASC_NODE": 148.4931, "ARG_OF_PERICENTER": 181.3058, "MEAN_ANOMALY": 352.4074, "EPHEMERIS_TYPE": 0, "CLASSIFICATION_TYPE": "U", "NORAD_CAT_ID": 33779, "ELEMENT_SET_NO": 999, "REV_AT_EPOCH": 88696, "BSTAR": 0.0028184378, "MEAN_MOTION_DOT": 0.00017238, "MEAN_MOTION_DDOT": 0}, "tle": {"line1": "1 33779U 93036U   25358.20129446  .00017238  00000+0  28184-2 0  9996", "line2": "2 33779  74.0453 148.4931 0015988 181.3058 352.4074 14.70741805886960"}}, "geometry": {"type": "Point", "coordinates": [161.8064940997696, 41.101989668495236]}}, {"type": "Feature", "properties": {"norad_id": 33782, "name": "COSMOS 2251 DEB", "group": "cosmos-2251-debris", "lat": -57.96669649539062, "lon": -131.96924528262412, "alt_km": 749.5405614790143, "timestamp": "2025-12-24T18:55:56.464280+00:00", "meta": {"OBJECT_NAME": "COSMOS 2251 DEB", "OBJECT_ID": "1993-036X", "EPOCH": "2025-12-24T04:48:00.472608", "MEAN_MOTION": 14.40474765, "ECCENTRICITY": 0.00211103, "INCLINATION": 74.0328, "RA_OF_ASC_NODE": 256.3519, "ARG_OF_PERICENTER": 319.7406, "MEAN_ANOMALY": 166.2076, "EPHEMERIS_TYPE": 0, "CLASSIFICATION_TYPE": "U", "NORAD_CAT_ID": 33782, "ELEMENT_SET_NO": 999, "REV_AT_EPOCH": 88291, "BSTAR": 0.00033980849, "MEAN_MOTION_DOT": 1.057e-05, "MEAN_MOTION_DDOT": 0}, "tle": {"line1": "1 33782U 93036X   25358.20000547  .00001057  00000+0  33981-3 0  9994", "line2": "2 33782  74.0328 256.3519 0021110 319.7406 166.2076 14.40474765882913"}}, "geometry": {"type": "Point", "coordinates": [-131.96924528262412, -57.96669649539062]}}, {"type": "Feature", "properties": {"norad_id": 33785, "name": "COSMOS 2251 DEB", "group": "cosmos-2251-debris", "lat": 17.137219958036606, "lon": 41.422480455135165, "alt_km": 647.1286439202731, "timestamp": "2025-12-24T18:55:56.464291+00:00", "meta": {"OBJECT_NAME": "COSMOS 2251 DEB", "OBJECT_ID": "1993-036AA", "EPOCH": "2025-12-24T04:24:52.983648", "MEAN_MOTION": 14.70732062, "ECCENTRICITY": 0.00232433, "INCLINATION": 73.8666, "RA_OF_ASC_NODE": 37.4875, "ARG_OF_PERICENTER": 334.9706, "MEAN_ANOMALY": 81.3794, "EPHEMERIS_TYPE": 0, "CLASSIFICATION_TYPE": "U", "NORAD_CAT_ID": 33785, "ELEMENT_SET_NO": 999, "REV_AT_EPOCH": 88675, "BSTAR": 0.0020731468, "MEAN_MOTION_DOT": 0.00012686, "MEAN_MOTION_DDOT": 0}, "tle": {"line1": "1 33785U 93036AA  25358.18394657  .00012686  00000+0  20731-2 0  9990", "line2": "2 33785  73.8666  37.4875 0023243 334.9706  81.3794 14.70732062886752"}}, "geometry": {"type": "Point", "coordinates": [41.422480455135165, 17.137219958036606]}}, {"type": "Feature", "properties": {"norad_id": 33789, "name": "COSMOS 2251 DEB", "group": "cosmos-2251-debris", "lat": -66.6162072402255, "lon": -71.68600194207826, "alt_km": 883.7731268343723, "timestamp": "2025-12-24T18:55:56.464302+00:00", "meta": {"OBJECT_NAME": "COSMOS 2251 DEB", "OBJECT_ID": "1993-036AE", "EPOCH": "2025-12-24T07:42:45.141120", "MEAN_MOTION": 13.88820652, "ECCENTRICITY": 0.02396122, "INCLINATION": 74.0643, "RA_OF_ASC_NODE": 67.7504, "ARG_OF_PERICENTER": 180.8257, "MEAN_ANOMALY": 252.7534, "EPHEMERIS_TYPE": 0, "CLASSIFICATION_TYPE": "U", "NORAD_CAT_ID": 33789, "ELEMENT_SET_NO": 999, "REV_AT_EPOCH": 85256, "BSTAR": 0.00063523559, "MEAN_MOTION_DOT": 9.42e-06, "MEAN_MOTION_DDOT": 0}, "tle": {"line1": "1 33789U 93036AE  25358.32135580  .00000942  00000+0  63524-3 0  9998", "line2": "2 33789  74.0643  67.7504 0239612 180.8257 252.7534 13.88820652852566"}}, "geometry": {"type": "Point", "coordinates": [-71.68600194207826, -66.6162072402255]}}, {"type": "Feature", "properties": {"norad_id": 33791, "name": "COSMOS 2251 DEB", "group": "cosmos-2251-debris", "lat": -39.153450515588446, "lon": 2.0385975394598304, "alt_km": 761.0007768716405, "timestamp": "2025-12-24T18:55:56.464313+00:00", "meta": {"OBJECT_NAME": "COSMOS 2251 DEB", "OBJECT_ID": "1993-036AG", "EPOCH": "2025-12-24T04:29:22.559424", "MEAN_MOTION": 14.43183759, "ECCENTRICITY": 0.0030098, "INCLINATION": 74.1745, "RA_OF_ASC_NODE": 16.4991, "ARG_OF_PERICENTER": 211.4481, "MEAN_ANOMALY": 222.0427, "EPHEMERIS_TYPE": 0, "CLASSIFICATION_TYPE": "U", "NORAD_CAT_ID": 33791, "ELEMENT_SET_NO": 999, "REV_AT_EPOCH": 88217, "BSTAR": 0.00091449297, "MEAN_MOTION_DOT": 3.066e-05, "MEAN_MOTION_DDOT": 0}, "tle": {"line1": "1 33791U 93036AG  25358.18706666  .00003066  00000+0  91449-3 0  9991", "line2": "2 33791  74.1745  16.4991 0030098 211.4481 222.0427 14.43183759882174"}}, "geometry": {"type": "Point", "coordinates": [2.0385975394598304, -39.153450515588446]}}, {"type": "Feature", "properties": {"norad_id": 33792, "name": "COSMOS 2251 DEB", "group": "cosmos-2251-debris", "lat": 60.46036818149695, "lon": 115.46534857634482, "alt_km": 1048.26569034154, "timestamp": "2025-12-24T18:55:56.464325+00:00", "meta": {"OBJECT_NAME": "COSMOS 2251 DEB", "OBJECT_ID": "1993-036AH", "EPOCH": "2025-12-24T06:23:44.666016", "MEAN_MOTION": 13.45845045, "ECCENTRICITY": 0.04277621, "INCLINATION": 73.9013, "RA_OF_ASC_NODE": 326.9363, "ARG_OF_PERICENTER": 29.4838, "MEAN_ANOMALY": 70.7676, "EPHEMERIS_TYPE": 0, "CLASSIFICATION_TYPE": "U", "NORAD_CAT_ID": 33792, "ELEMENT_SET_NO": 999, "REV_AT_EPOCH": 82597, "BSTAR": 0.0011173506, "MEAN_MOTION_DOT": 1.139e-05, "MEAN_MOTION_DDOT": 0}, "tle": {"line1": "1 33792U 93036AH  25358.26648919  .00001139  00000+0  11174-2 0  9992", "line2": "2 33792  73.9013 326.9363 0427762  29.4838  70.7676 13.45845045825976"}}, "geometry": {"type": "Point", "coordinates": [115.46534857634482, 60.46036818149695]}}, {"type": "Feature", "properties": {"norad_id": 33793, "name": "COSMOS 2251 DEB", "group": "cosmos-2251-debris", "lat": -68.05642609657384, "lon": -6.4936249759867, "alt_km": 753.1770336940508, "timestamp": "2025-12-24T18:55:56.464335+00:00", "meta": {"OBJECT_NAME": "COSMOS 2251 DEB", "OBJECT_ID": "1993-036AJ", "EPOCH": "2025-12-24T03:27:20.431008", "MEAN_MOTION": 14.27760503, "ECCENTRICITY": 0.00789087, "INCLINATION": 73.9807, "RA_OF_ASC_NODE": 129.1904, "ARG_OF_PERICENTER": 277.0719, "MEAN_ANOMALY": 264.796, "EPHEMERIS_TYPE": 0, "CLASSIFICATION_TYPE": "U", "NORAD_CAT_ID": 33793, "ELEMENT_SET_NO": 999, "REV_AT_EPOCH": 87369, "BSTAR": 0.00070393774, "MEAN_MOTION_DOT": 1.77e-05, "MEAN_MOTION_DDOT": 0}, "tle": {"line1": "1 33793U 93036AJ  25358.14398647  .00001770  00000+0  70394-3 0  9991", "line2": "2 33793  73.9807 129.1904 0078908 277.0719 264.7960 14.27760503873694"}}, "geometry": {"type": "Point", "coordinates": [-6.4936249759867, -68.05642609657384]}}, {"type": "Feature", "properties": {"norad_id": 33795, "name": "COSMOS 2251 DEB", "group": "cosmos-2251-debris", "lat": -19.274758052373645, "lon": 46.27794410108015, "alt_km": 571.8530115112753, "timestamp": "2025-12-24T18:55:56.464346+00:00", "meta": {"OBJECT_NAME": "COSMOS 2251 DEB", "OBJECT_ID": "1993-036AL", "EPOCH": "2025-12-24T06:34:52.272768", "MEAN_MOTION": 15.05889304, "ECCENTRICITY": 0.00302807, "INCLINATION": 74.0317, "RA_OF_ASC_NODE": 53.0802, "ARG_OF_PERICENTER": 132.1271, "MEAN_ANOMALY": 299.3311, "EPHEMERIS_TYPE": 0, "CLASSIFICATION_TYPE": "U", "NORAD_CAT_ID": 33795, "ELEMENT_SET_NO": 999, "REV_AT_EPOCH": 90195, "BSTAR": 0.0011831619, "MEAN_MOTION_DOT": 0.00017377, "MEAN_MOTION_DDOT": 0}, "tle": {"line1": "1 33795U 93036AL  25358.27421612  .00017377  00000+0  11832-2 0  9997", "line2": "2 33795  74.0317  53.0802 0030280 132.1271 299.3311 15.05889304901954"}}, "geometry": {"type": "Point", "coordinates": [46.27794410108015, -19.274758052373645]}}, {"type": "Feature", "properties": {"norad_id": 33797, "name": "COSMOS 2251 DEB", "group": "cosmos-2251-debris", "lat": -62.04599383749454, "lon": -135.32255569618934, "alt_km": 743.9148306545294, "timestamp": "2025-12-24T18:55:56.464356+00:00", "meta": {"OBJECT_NAME": "COSMOS 2251 DEB", "OBJECT_ID": "1993-036AN", "EPOCH": "2025-12-24T04:57:58.573152", "MEAN_MOTION": 14.57886511, "ECCENTRICITY": 0.00603746, "INCLINATION": 74.0464, "RA_OF_ASC_NODE": 13.1647, "ARG_OF_PERICENTER": 97.5749, "MEAN_ANOMALY": 335.8844, "EPHEMERIS_TYPE": 0, "CLASSIFICATION_TYPE": "U", "NORAD_CAT_ID": 33797, "ELEMENT_SET_NO": 999, "REV_AT_EPOCH": 89152, "BSTAR": 0.00036421402, "MEAN_MOTION_DOT": 1.682e-05, "MEAN_MOTION_DDOT": 0}, "tle": {"line1": "1 33797U 93036AN  25358.20692793  .00001682  00000+0  36421-3 0  9996", "line2": "2 33797  74.0464  13.1647 0060374  97.5749 335.8844 14.57886511891525"}}, "geometry": {"type": "Point", "coordinates": [-135.32255569618934, -62.04599383749454]}}, {"type": "Feature", "properties": {"norad_id": 33798, "name": "COSMOS 2251 DEB", "group": "cosmos-2251-debris", "lat": -73.8584973727945, "lon": 31.776631596075227, "alt_km": 699.6529840303137, "timestamp": "2025-12-24T18:55:56.464379+00:00", "meta": {"OBJECT_NAME": "COSMOS 2251 DEB", "OBJECT_ID": "1993-036AP", "EPOCH": "2025-12-24T01:52:46.797024", "MEAN_MOTION": 14.44628494, "ECCENTRICITY": 0.00923378, "INCLINATION": 74.0293, "RA_OF_ASC_NODE": 114.7859, "ARG_OF_PERICENTER": 233.6999, "MEAN_ANOMALY": 304.2081, "EPHEMERIS_TYPE": 0, "CLASSIFICATION_TYPE": "U", "NORAD_CAT_ID": 33798, "ELEMENT_SET_NO": 999, "REV_AT_EPOCH": 88757, "BSTAR": 0.00018186464, "MEAN_MOTION_DOT": 6.34e-06, "MEAN_MOTION_DDOT": 0}, "tle": {"line1": "1 33798U 93036AP  25358.07831941  .00000634  00000+0  18186-3 0  9996", "line2": "2 33798  74.0293 114.7859 0092337 233.6999 304.2081 14.44628494887576"}}, "geometry": {"type": "Point", "coordinates": [31.776631596075227, -73.8584973727945]}}]}